COMMENT,ORIGINATOR,NORAD_CAT_ID,OBJECT_NAME,OBJECT_TYPE,CLASSIFICATION_TYPE,INTLDES,EPOCH,EPOCH_MICROSECONDS,MEAN_MOTION,ECCENTRICITY,INCLINATION,RA_OF_ASC_NODE,ARG_OF_PERICENTER,MEAN_ANOMALY,EPHEMERIS_TYPE,ELEMENT_SET_NO,REV_AT_EPOCH,BSTAR,MEAN_MOTION_DOT,MEAN_MOTION_DDOT,FILE,TLE_LINE0,TLE_LINE1,TLE_LINE2,OBJECT_ID,OBJECT_NUMBER,SEMIMAJOR_AXIS,PERIOD,APOGEE,PERIGEE,DECAYED,date
GENERATED VIA SPACETRACK.ORG API,18 SPCS,48894,SPACEBEE-107,PAYLOAD,U,21059R,2023/2/5 2:48,396640,15.22899919,0.0008269,97.5796,171.2613,13.7721,346.374,0,999,8925,0.0008725,0.00020441,0,3772735,0 SPACEBEE-107,1 48894U 21059R   23036.11676385  .00020441  00000-0  87250-3 0  9997,2 48894  97.5796 171.2613 0008269  13.7721 346.3740 15.22899919 89251,2021-059R,48894,6875.236,94.556,502.786,491.416,0,2023/3/11
GENERATED VIA SPACETRACK.ORG API,18 SPCS,48894,SPACEBEE-107,PAYLOAD,U,21059R,2023/2/5 7:31,317536,15.22910259,0.0008287,97.5798,171.4603,13.0137,347.1312,0,999,8928,0.00089653,0.00021014,0,3773728,0 SPACEBEE-107,1 48894U 21059R   23036.31388099  .00021014  00000-0  89653-3 0  9997,2 48894  97.5798 171.4603 0008287  13.0137 347.1312 15.22910259 89286,2021-059R,48894,6875.205,94.556,502.767,491.372,0,2023/3/12
GENERATED VIA SPACETRACK.ORG API,18 SPCS,48894,SPACEBEE-107,PAYLOAD,U,21059R,2023/2/5 21:43,508256,15.22937746,0.0008222,97.58,172.0569,11.3792,348.7629,0,999,8937,0.00091519,0.00021471,0,3774172,0 SPACEBEE-107,1 48894U 21059R   23036.90522579  .00021471  00000-0  91519-3 0  9996,2 48894  97.5800 172.0569 0008222  11.3792 348.7629 15.22937746 89373,2021-059R,48894,6875.122,94.554,502.64,491.334,0,2023/3/13
GENERATED VIA SPACETRACK.ORG API,18 SPCS,48894,SPACEBEE-107,PAYLOAD,U,21059R,2023/2/6 8:45,174272,15.22964084,0.0008272,97.58,172.5213,9.7247,350.4147,0,999,8944,0.001132,0.00026614,0,3774896,0 SPACEBEE-107,1 48894U 21059R   23037.36515248  .00026614  00000-0  11320-2 0  9997,2 48894  97.5800 172.5213 0008272   9.7247 350.4147 15.22964084 89443,2021-059R,48894,6875.043,94.552,502.595,491.221,0,2023/3/14
GENERATED VIA SPACETRACK.ORG API,18 SPCS,48894,SPACEBEE-107,PAYLOAD,U,21059R,2023/2/6 8:45,174272,15.22964084,0.0008272,97.58,172.5213,9.7247,350.4147,0,999,8944,0.001132,0.00026614,0,3775254,0 SPACEBEE-107,1 48894U 21059R   23037.36515248  .00026614  00000-0  11320-2 0  9997,2 48894  97.5800 172.5213 0008272   9.7247 350.4147 15.22964084 89443,2021-059R,48894,6875.043,94.552,502.595,491.221,0,2023/3/15
GENERATED VIA SPACETRACK.ORG API,18 SPCS,48894,SPACEBEE-107,PAYLOAD,U,21059R,2023/2/6 21:22,806208,15.22994598,0.0008185,97.5802,173.0517,7.8985,352.2378,0,999,8952,0.0011764,0.00027689,0,3776034,0 SPACEBEE-107,1 48894U 21059R   23037.89077322  .00027689  00000-0  11764-2 0  9996,2 48894  97.5802 173.0517 0008185   7.8985 352.2378 15.22994598 89527,2021-059R,48894,6874.951,94.551,502.443,491.189,0,2023/3/16
GENERATED VIA SPACETRACK.ORG API,18 SPCS,48894,SPACEBEE-107,PAYLOAD,U,21059R,2023/2/7 8:24,881600,15.23026844,0.000819,97.5802,173.516,5.9098,354.2233,0,999,8959,0.0013819,0.00032591,0,3776868,0 SPACEBEE-107,1 48894U 21059R   23038.35068150  .00032591  00000-0  13819-2 0  9998,2 48894  97.5802 173.5160 0008190   5.9098 354.2233 15.23026844 89596,2021-059R,48894,6874.854,94.549,502.349,491.088,0,2023/3/17
GENERATED VIA SPACETRACK.ORG API,18 SPCS,48894,SPACEBEE-107,PAYLOAD,U,21059R,2023/2/7 8:24,881600,15.23026844,0.000819,97.5802,173.516,5.9098,354.2233,0,999,8959,0.0013819,0.00032591,0,3777208,0 SPACEBEE-107,1 48894U 21059R   23038.35068150  .00032591  00000-0  13819-2 0  9998,2 48894  97.5802 173.5160 0008190   5.9098 354.2233 15.23026844 89596,2021-059R,48894,6874.854,94.549,502.349,491.088,0,2023/3/18
GENERATED VIA SPACETRACK.ORG API,18 SPCS,48894,SPACEBEE-107,PAYLOAD,U,21059R,2023/2/7 21:01,506464,15.23063681,0.0008165,97.5803,174.0465,3.7688,356.3609,0,999,8967,0.0013635,0.0003219,0,3777976,0 SPACEBEE-107,1 48894U 21059R   23038.87627901  .00032190  00000-0  13635-2 0  9991,2 48894  97.5803 174.0465 0008165   3.7688 356.3609 15.23063681 89673,2021-059R,48894,6874.743,94.546,502.221,490.995,0,2023/3/19
GENERATED VIA SPACETRACK.ORG API,18 SPCS,48894,SPACEBEE-107,PAYLOAD,U,21059R,2023/2/8 8:04,755360,15.23097559,0.0008252,97.5802,174.5106,1.8843,358.2423,0,999,8974,0.0014356,0.00033938,0,3780324,0 SPACEBEE-107,1 48894U 21059R   23039.33616615  .00033938  00000-0  14356-2 0  9995,2 48894  97.5802 174.5106 0008252   1.8843 358.2423 15.23097559 89742,2021-059R,48894,6874.641,94.544,502.179,490.833,0,2023/3/20
GENERATED VIA SPACETRACK.ORG API,18 SPCS,48894,SPACEBEE-107,PAYLOAD,U,21059R,2023/2/8 8:04,755360,15.23097559,0.0008252,97.5802,174.5106,1.8843,358.2423,0,999,8974,0.0014356,0.00033938,0,3780432,0 SPACEBEE-107,1 48894U 21059R   23039.33616615  .00033938  00000-0  14356-2 0  9995,2 48894  97.5802 174.5106 0008252   1.8843 358.2423 15.23097559 89742,2021-059R,48894,6874.641,94.544,502.179,490.833,0,2023/3/21
GENERATED VIA SPACETRACK.ORG API,18 SPCS,48894,SPACEBEE-107,PAYLOAD,U,21059R,2023/2/8 22:15,289824,15.23144996,0.0008262,97.58,175.1076,359.702,0.421,0,999,8983,0.0015822,0.00037482,0,3780893,0 SPACEBEE-107,1 48894U 21059R   23039.92743391  .00037482  00000-0  15822-2 0  9999,2 48894  97.5800 175.1076 0008262 359.7020   0.4210 15.23144996 89834,2021-059R,48894,6874.498,94.541,502.043,490.684,0,2023/3/22
GENERATED VIA SPACETRACK.ORG API,18 SPCS,48894,SPACEBEE-107,PAYLOAD,U,21059R,2023/2/9 7:43,398112,15.23178644,0.0008266,97.58,175.5053,358.4382,1.6827,0,999,8989,0.0016739,0.0003971,0,3782313,0 SPACEBEE-107,1 48894U 21059R   23040.32160183  .00039710  00000-0  16739-2 0  9991,2 48894  97.5800 175.5053 0008266 358.4382   1.6827 15.23178644 89894,2021-059R,48894,6874.397,94.539,501.944,490.58,0,2023/3/23
GENERATED VIA SPACETRACK.ORG API,18 SPCS,48894,SPACEBEE-107,PAYLOAD,U,21059R,2023/2/9 7:43,398112,15.23178644,0.0008266,97.58,175.5053,358.4382,1.6827,0,999,8989,0.0016739,0.0003971,0,3782604,0 SPACEBEE-107,1 48894U 21059R   23040.32160183  .00039710  00000-0  16739-2 0  9991,2 48894  97.5800 175.5053 0008266 358.4382   1.6827 15.23178644 89894,2021-059R,48894,6874.397,94.539,501.944,490.58,0,2023/3/24
GENERATED VIA SPACETRACK.ORG API,18 SPCS,48894,SPACEBEE-107,PAYLOAD,U,21059R,2023/2/9 20:19,475744,15.23221088,0.0008245,97.5798,176.0355,356.659,3.4589,0,999,8997,0.001664,0.00039523,0,3783241,0 SPACEBEE-107,1 48894U 21059R   23040.84714671  .00039523  00000-0  16640-2 0  9998,2 48894  97.5798 176.0355 0008245 356.6590   3.4589 15.23221088 89974,2021-059R,48894,6874.269,94.537,501.802,490.467,0,2023/3/25
GENERATED VIA SPACETRACK.ORG API,18 SPCS,48894,SPACEBEE-107,PAYLOAD,U,21059R,2023/2/9 21:54,253312,15.23227337,0.000825,97.5798,176.1019,356.4042,3.7134,0,999,8998,0.0017063,0.00040542,0,3784184,0 SPACEBEE-107,1 48894U 21059R   23040.91283858  .00040542  00000-0  17063-2 0  9997,2 48894  97.5798 176.1019 0008250 356.4042   3.7134 15.23227337 89981,2021-059R,48894,6874.251,94.536,501.787,490.444,0,2023/3/26
GENERATED VIA SPACETRACK.ORG API,18 SPCS,48894,SPACEBEE-107,PAYLOAD,U,21059R,2023/2/10 8:56,191712,15.23269697,0.0008307,97.5804,176.5667,355.006,5.1092,0,999,9005,0.0019094,0.00045464,0,3784228,0 SPACEBEE-107,1 48894U 21059R   23041.37267583  .00045464  00000-0  19094-2 0  9999,2 48894  97.5804 176.5667 0008307 355.0060   5.1092 15.23269697 90054,2021-059R,48894,6874.123,94.533,501.698,490.278,0,2023/3/27
GENERATED VIA SPACETRACK.ORG API,18 SPCS,48894,SPACEBEE-107,PAYLOAD,U,21059R,2023/2/10 8:56,191712,15.23269697,0.0008307,97.5804,176.5667,355.006,5.1092,0,999,9005,0.0019094,0.00045464,0,3785071,0 SPACEBEE-107,1 48894U 21059R   23041.37267583  .00045464  00000-0  19094-2 0  9999,2 48894  97.5804 176.5667 0008307 355.0060   5.1092 15.23269697 90054,2021-059R,48894,6874.123,94.533,501.698,490.278,0,2023/3/28
GENERATED VIA SPACETRACK.ORG API,18 SPCS,48894,SPACEBEE-107,PAYLOAD,U,21059R,2023/2/11 10:10,583584,15.23360426,0.0008229,97.5802,177.628,351.5716,8.5381,0,999,9021,0.0018763,0.0004479,0,3785758,0 SPACEBEE-107,1 48894U 21059R   23042.42368731  .00044790  00000-0  18763-2 0  9996,2 48894  97.5802 177.6280 0008229 351.5716   8.5381 15.23360426 90215,2021-059R,48894,6873.85,94.528,501.372,490.059,0,2023/3/29
GENERATED VIA SPACETRACK.ORG API,18 SPCS,48894,SPACEBEE-107,PAYLOAD,U,21059R,2023/2/11 10:10,583584,15.23360426,0.0008229,97.5802,177.628,351.5716,8.5381,0,999,9021,0.0018763,0.0004479,0,3786144,0 SPACEBEE-107,1 48894U 21059R   23042.42368731  .00044790  00000-0  18763-2 0  9996,2 48894  97.5802 177.6280 0008229 351.5716   8.5381 15.23360426 90215,2021-059R,48894,6873.85,94.528,501.372,490.059,0,2023/3/30
GENERATED VIA SPACETRACK.ORG API,18 SPCS,48894,SPACEBEE-107,PAYLOAD,U,21059R,2023/2/11 14:53,357632,15.23376019,0.0008234,97.5804,177.8269,350.959,9.1497,0,999,9024,0.0017979,0.00042924,0,3786577,0 SPACEBEE-107,1 48894U 21059R   23042.62074488  .00042924  00000-0  17979-2 0  9996,2 48894  97.5804 177.8269 0008234 350.9590   9.1497 15.23376019 90248,2021-059R,48894,6873.803,94.527,501.328,490.008,0,2023/3/31
GENERATED VIA SPACETRACK.ORG API,18 SPCS,48894,SPACEBEE-107,PAYLOAD,U,21059R,2023/2/12 9:48,544384,15.23441841,0.000825,97.5799,178.623,347.4892,12.6138,0,999,9036,0.0016687,0.00039896,0,3787692,0 SPACEBEE-107,1 48894U 21059R   23043.40895306  .00039896  00000-0  16687-2 0  9992,2 48894  97.5799 178.6230 0008250 347.4892  12.6138 15.23441841 90362,2021-059R,48894,6873.605,94.523,501.141,489.8,0,2023/4/1
GENERATED VIA SPACETRACK.ORG API,18 SPCS,48894,SPACEBEE-107,PAYLOAD,U,21059R,2023/2/12 22:25,705184,15.23487111,0.0008258,97.5797,179.1537,345.4373,14.6625,0,999,9044,0.0017302,0.00041433,0,3788566,0 SPACEBEE-107,1 48894U 21059R   23043.93440631  .00041433  00000-0  17302-2 0  9992,2 48894  97.5797 179.1537 0008258 345.4373  14.6625 15.23487111 90448,2021-059R,48894,6873.469,94.52,501.01,489.658,0,2023/4/2
